[{"OBJECT_NAME":"STARLINK-31309","OBJECT_ID":"2024-044N","EPOCH":"2026-03-09T12:49:55.507872","MEAN_MOTION":15.2756807,"ECCENTRICITY":1.831e-5,"INCLINATION":43.0014,"RA_OF_ASC_NODE":107.7527,"ARG_OF_PERICENTER":226.0341,"MEAN_ANOMALY":134.0496,"EPHEMERIS_TYPE":0,"CLASSIFICATION_TYPE":"U","NORAD_CAT_ID":59164,"ELEMENT_SET_NO":999,"REV_AT_EPOCH":11357,"BSTAR":8.1150608e-5,"MEAN_MOTION_DOT":1.971e-5,"MEAN_MOTION_DDOT":0},{"OBJECT_NAME":"COSMOS 1975","OBJECT_ID":"1988-093A","EPOCH":"2026-03-09T14:15:08.474112","MEAN_MOTION":15.28069249,"ECCENTRICITY":0.0012117,"INCLINATION":82.5181,"RA_OF_ASC_NODE":117.7814,"ARG_OF_PERICENTER":163.8427,"MEAN_ANOMALY":196.3201,"EPHEMERIS_TYPE":0,"CLASSIFICATION_TYPE":"U","NORAD_CAT_ID":19573,"ELEMENT_SET_NO":999,"REV_AT_EPOCH":1939,"BSTAR":0.0002787,"MEAN_MOTION_DOT":7.676e-5,"MEAN_MOTION_DDOT":0}]
